[
    {
        "Altitude(m)": 622200.0797710979,
        "Argument of Periapsis(deg)": 0.0,
        "Eccentricity": 0.0,
        "Inclination(deg)": 60.0,
        "Latitude(deg)": -52.16246252136212,
        "Longitude(deg)": 67.36082471173007,
        "Mean Anomaly(deg)": -65.45449999999998,
        "RAAN(deg)": 215.0,
        "Satellite Name": "Test1 964",
        "Satellite Number": 964,
        "Semi-Major Axis(m)": 6980739.136638005,
        "Time(s)": 0
    },
    {
        "Altitude(m)": 622058.2471626953,
        "Argument of Periapsis(deg)": 0.00010418945913296404,
        "Eccentricity": 0.0,
        "Inclination(deg)": 60.0,
        "Latitude(deg)": -51.79921142061786,
        "Longitude(deg)": 68.12888036840936,
        "Mean Anomaly(deg)": -64.83439385453813,
        "RAAN(deg)": 214.99957995086024,
        "Satellite Name": "Test1 964",
        "Satellite Number": 964,
        "Semi-Major Axis(m)": 6980739.136638005,
        "Time(s)": 10
    }
]